     2.11           N: GPS NAV DATA                         RINEX VERSION / TYPE
teqc  2018Dec12     gpsops              20220614 01:03:37UTCPGM / RUN BY / DATE
Linux 2.6.32-573.12.1.x86_64|x86_64|gcc -static|Linux 64|=+ COMMENT
CHPI                                    MARKER NAME         COMMENT
41609M003                               MARKER NUMBER       COMMENT
4164613.9484 -4162456.9866 -2445028.7316                    COMMENT
This data is provided as a public service by NASA/JPL.      COMMENT
No warranty is expressed or implied regarding suitability   COMMENT
for use.  For further information, contact:                 COMMENT
ggnops at jpl dot nasa dot gov                              COMMENT
                                                            END OF HEADER
 3 22  6 13 16  0  0.0-2.773632295430D-04-1.216449163621D-11 0.000000000000D+00
    5.900000000000D+01-6.196875000000D+01 3.959093483564D-09-9.602575839542D-02
   -3.209337592125D-06 4.255242180079D-03 1.148693263531D-05 5.153612436295D+03
    1.440000000000D+05 2.607703208923D-08-3.004511399834D+00 5.587935447693D-08
    9.744759056672D-01 1.634687500000D+02 9.720311457303D-01-7.619960259073D-09
    3.614436270064D-10 1.000000000000D+00 2.214000000000D+03 0.000000000000D+00
    2.000000000000D+00 0.000000000000D+00 1.862645149231D-09 5.900000000000D+01
    1.381380000000D+05 4.000000000000D+00
 4 22  6 13 16  0  0.0-1.574452035129D-04 3.979039320257D-12 0.000000000000D+00
    1.880000000000D+02 1.584375000000D+01 4.880203280055D-09 2.782398568149D+00
    7.823109626770D-07 1.848220010288D-03 5.409121513367D-06 5.153592140198D+03
    1.440000000000D+05-3.352761268616D-08-1.923311058906D+00-2.793967723846D-08
    9.609941149308D-01 2.754375000000D+02-2.974358832498D+00-8.078907947515D-09
    2.775115594704D-10 1.000000000000D+00 2.214000000000D+03 0.000000000000D+00
    2.000000000000D+00 0.000000000000D+00-4.656612873077D-09 1.880000000000D+02
    1.381380000000D+05 4.000000000000D+00
 9 22  6 13 16  0  0.0-3.286991268396D-04 3.296918293927D-12 0.000000000000D+00
    2.700000000000D+01 1.581250000000D+01 4.989493546719D-09-2.528005391355D+00
    8.065253496170D-07 2.117137424648D-03 5.559995770454D-06 5.153538169861D+03
    1.440000000000D+05 1.862645149231D-08-1.977244095467D+00 7.450580596924D-09
    9.540882989558D-01 2.702187500000D+02 1.871216322276D+00-8.134981711784D-09
    2.864405028253D-10 1.000000000000D+00 2.214000000000D+03 0.000000000000D+00
    2.000000000000D+00 0.000000000000D+00 1.396983861923D-09 2.700000000000D+01
    1.381380000000D+05 4.000000000000D+00
 6 22  6 13 16  0  0.0 3.421469591558D-04 1.546140993014D-11 0.000000000000D+00
    2.600000000000D+01-1.462187500000D+02 3.901948246092D-09 1.233377273720D+00
   -7.735565304756D-06 2.491420716979D-03 4.891306161880D-06 5.153745651245D+03
    1.440000000000D+05-7.450580596924D-09 2.236938567002D+00-3.911554813385D-08
    9.872339762006D-01 2.961250000000D+02-8.522755906650D-01-7.886042771050D-09
   -4.185888644778D-10 1.000000000000D+00 2.214000000000D+03 0.000000000000D+00
    2.000000000000D+00 0.000000000000D+00 3.725290298462D-09 2.600000000000D+01
    1.381380000000D+05 4.000000000000D+00
30 22  6 13 16  0  0.0-5.312575958669D-04-1.136868377216D-12 0.000000000000D+00
    5.500000000000D+01-1.259375000000D+01 5.064496670900D-09 3.054415203053D-01
   -5.662441253662D-07 5.897078197449D-03 8.979812264442D-06 5.153753179550D+03
    1.440000000000D+05 4.656612873077D-08-8.937104543306D-01 1.750886440277D-07
    9.357247403485D-01 1.936875000000D+02-2.673785710456D+00-8.218556621586D-09
   -5.557374344091D-10 1.000000000000D+00 2.214000000000D+03 0.000000000000D+00
    2.000000000000D+00 0.000000000000D+00 3.725290298462D-09 5.500000000000D+01
    1.381380000000D+05 4.000000000000D+00
16 22  6 13 16  0  0.0-5.086637102067D-04-2.728484105319D-12 0.000000000000D+00
    6.100000000000D+01 1.676562500000D+02 4.003381042604D-09-2.115825960850D+00
    8.260831236839D-06 1.270776230376D-02 1.000799238682D-05 5.153675111771D+03
    1.440000000000D+05 1.341104507446D-07 2.263254125505D-01-1.229345798492D-07
    9.693394364441D-01 1.875312500000D+02 7.291883362268D-01-7.654604559290D-09
    2.985838657879D-10 1.000000000000D+00 2.214000000000D+03 0.000000000000D+00
    2.000000000000D+00 0.000000000000D+00-1.024454832077D-08 6.100000000000D+01
    1.381380000000D+05 4.000000000000D+00
11 22  6 13 16  0  0.0-1.537567004561D-05 2.728484105319D-12 0.000000000000D+00
    8.900000000000D+01-1.521875000000D+02 4.438756320589D-09-3.059754203044D+00
   -7.977709174156D-06 4.554931074381D-04 5.949288606644D-06 5.153590707779D+03
    1.440000000000D+05-4.470348358154D-08 2.286233192115D+00 1.117587089539D-08
    9.631315611297D-01 2.664375000000D+02 2.805735585943D+00-8.095337203288D-09
   -3.500145795122D-10 1.000000000000D+00 2.214000000000D+03 0.000000000000D+00
    2.000000000000D+00 0.000000000000D+00-8.381903171539D-09 6.010000000000D+02
    1.381920000000D+05 4.000000000000D+00
 8 22  6 13 16  0  0.0-7.200008258224D-05-1.591615728103D-12 0.000000000000D+00
    7.300000000000D+01 7.968750000000D+01 4.837701509686D-09-3.106671252733D+00
    4.118308424950D-06 7.447394658811D-03-2.048909664154D-07 5.153775171280D+03
    1.440000000000D+05-1.769512891769D-07 1.162148946683D+00 1.303851604462D-08
    9.632053243851D-01 3.872500000000D+02 1.735293134953D-01-8.413564744457D-09
    2.275094766829D-10 1.000000000000D+00 2.214000000000D+03 0.000000000000D+00
    2.000000000000D+00 0.000000000000D+00 5.122274160385D-09 7.300000000000D+01
    1.387920000000D+05 4.000000000000D+00
14 22  6 13 16  0  0.0-1.114145852625D-04-6.821210263297D-13 0.000000000000D+00
    2.300000000000D+02 1.337187500000D+02 4.395540234751D-09-3.159873690451D-01
    7.063150405884D-06 1.980789704248D-03 9.495764970779D-06 5.153669172287D+03
    1.440000000000D+05 1.862645149231D-09 1.746556024212D-01 1.862645149231D-09
    9.528544299602D-01 1.915312500000D+02-3.138814389293D+00-7.961760210699D-09
    1.210764718925D-10 1.000000000000D+00 2.214000000000D+03 0.000000000000D+00
    2.000000000000D+00 0.000000000000D+00-7.916241884232D-09 7.420000000000D+02
    1.390080000000D+05 4.000000000000D+00
27 22  6 13 16  0  0.0 2.150991931558D-04 3.410605131648D-12 0.000000000000D+00
    6.300000000000D+01 8.181250000000D+01 4.613763610345D-09-3.050695194020D+00
    4.010275006294D-06 1.054302894045D-02-7.078051567078D-07 5.153659275055D+03
    1.440000000000D+05-1.322478055954D-07 1.182563229705D+00-2.197921276093D-07
    9.719409070915D-01 4.003750000000D+02 6.881223254112D-01-8.362491188467D-09
    2.153661137202D-10 1.000000000000D+00 2.214000000000D+03 0.000000000000D+00
    2.800000000000D+00 0.000000000000D+00 1.862645149231D-09 6.300000000000D+01
    1.390380000000D+05 4.000000000000D+00
20 22  6 13 16  0  0.0 5.117291584611D-04-3.296918293927D-12 0.000000000000D+00
    1.360000000000D+02-7.606250000000D+01 4.502330397276D-09 2.075696434117D+00
   -3.876164555550D-06 4.776028334163D-03 1.219660043716D-05 5.153599220276D+03
    1.440000000000D+05-7.264316082001D-08 3.120591014810D+00 1.117587089539D-08
    9.438358238077D-01 1.384062500000D+02-3.117135081508D+00-7.831040479983D-09
    2.050085394286D-10 1.000000000000D+00 2.214000000000D+03 0.000000000000D+00
    2.000000000000D+00 0.000000000000D+00-8.381903171539D-09 1.360000000000D+02
    1.402560000000D+05 4.000000000000D+00
 2 22  6 13 16  0  0.0-6.527155637741D-04 3.410605131648D-13 0.000000000000D+00
    4.300000000000D+01-1.472500000000D+02 4.515902391175D-09 1.171243933251D+00
   -8.175149559975D-06 2.039792842697D-02 4.384666681290D-06 5.153682218552D+03
    1.440000000000D+05-1.471489667892D-07 2.153460921137D+00-4.991888999939D-07
    9.659495890033D-01 3.030000000000D+02-1.414362856839D+00-8.354633718315D-09
   -3.525146836515D-10 1.000000000000D+00 2.214000000000D+03 0.000000000000D+00
    2.000000000000D+00 0.000000000000D+00-1.769512891769D-08 4.300000000000D+01
    1.402860000000D+05 4.000000000000D+00
28 22  6 13 15 59 44.0 3.390368074179D-04-6.934897101019D-12 0.000000000000D+00
    2.000000000000D+00 1.537812500000D+02 3.957307694893D-09-2.600639257898D+00
    7.981434464455D-06 1.654238044284D-02 8.970499038696D-06 5.153686977386D+03
    1.439840000000D+05 1.080334186554D-07 2.297587130469D-01 2.086162567139D-07
    9.685122689149D-01 2.044375000000D+02-1.275575382709D+00-7.496740840776D-09
    2.114373786441D-10 1.000000000000D+00 2.214000000000D+03 0.000000000000D+00
    2.000000000000D+00 6.300000000000D+01-1.117587089539D-08 2.000000000000D+00
    1.427460000000D+05 4.000000000000D+00
 7 22  6 13 18  0  0.0 3.217980265617D-04-4.547473508865D-13 0.000000000000D+00
    4.800000000000D+01-1.753125000000D+01 4.790913846506D-09 1.398858261479D+00
   -8.624047040939D-07 1.622515486088D-02 9.369105100632D-06 5.153654273987D+03
    1.512000000000D+05-3.017485141754D-07-9.051387513479D-01-1.303851604462D-08
    9.505618383732D-01 1.986875000000D+02-2.260374012851D+00-8.161054226381D-09
   -8.582500352732D-10 1.000000000000D+00 2.214000000000D+03 0.000000000000D+00
    2.000000000000D+00 0.000000000000D+00-1.117587089539D-08 4.800000000000D+01
    1.440180000000D+05 4.000000000000D+00
 9 22  6 13 18  0  0.0-3.286753781140D-04 3.296918293927D-12 0.000000000000D+00
    2.800000000000D+01 1.706250000000D+01 5.067353932774D-09-1.478059625173D+00
    8.232891559601D-07 2.117439988069D-03 5.697831511497D-06 5.153536762238D+03
    1.512000000000D+05-1.676380634308D-08-1.977302773111D+00 2.607703208923D-08
    9.540901641764D-01 2.650625000000D+02 1.871538383692D+00-8.174269062546D-09
    2.814402945465D-10 1.000000000000D+00 2.214000000000D+03 0.000000000000D+00
    2.000000000000D+00 0.000000000000D+00 1.396983861923D-09 2.800000000000D+01
    1.440180000000D+05 4.000000000000D+00
